start=new Date('2021-09-25T00:00:00.000Z').valueOf();
sats=[{"MEAN_MOTION_DDOT":"0.0000000000000","INCLINATION":"53.0538","OBJECT_ID":"2021-040AJ","GP_ID":"185389167","BSTAR":"0.00151920000000","RCS_SIZE":"LARGE","SITE":"AFETR","TIME_SYSTEM":"UTC","ECCENTRICITY":"0.00007490","SEMIMAJOR_AXIS":"6925.415","PERIAPSIS":"546.762","TLE_LINE2":"2 48460  53.0538 290.9742 0000749  66.5453  50.5860 15.06378245  3604","REV_AT_EPOCH":"360","TLE_LINE1":"1 48460U 21040AJ  21267.58334491  .00022406  00000-0  15192-2 0  9998","PERIOD":"95.594","CENTER_NAME":"EARTH","EPOCH":"2021-09-24T14:00:01.000224","OBJECT_NAME":"STARLINK-2582","MEAN_MOTION":"15.06378245","DECAY_DATE":null,"ELEMENT_SET_NO":"999","MEAN_ELEMENT_THEORY":"SGP4","REF_FRAME":"TEME","RA_OF_ASC_NODE":"290.9742","MEAN_MOTION_DOT":"0.00022406","LAUNCH_DATE":"2021-05-09","APOAPSIS":"547.799","CLASSIFICATION_TYPE":"U","OBJECT_TYPE":"PAYLOAD","ARG_OF_PERICENTER":"66.5453","COUNTRY_CODE":"US","FILE":"3126002","MEAN_ANOMALY":"50.5860","EPHEMERIS_TYPE":"0","NORAD_CAT_ID":"48460"},{"OBJECT_TYPE":"PAYLOAD","CLASSIFICATION_TYPE":"U","ARG_OF_PERICENTER":"48.7736","APOAPSIS":"547.752","NORAD_CAT_ID":"48461","EPHEMERIS_TYPE":"0","FILE":"3126621","COUNTRY_CODE":"US","MEAN_ANOMALY":"348.3078","MEAN_MOTION":"15.06392275","MEAN_ELEMENT_THEORY":"SGP4","ELEMENT_SET_NO":"999","DECAY_DATE":null,"OBJECT_NAME":"STARLINK-2693","MEAN_MOTION_DOT":"0.00018331","LAUNCH_DATE":"2021-05-09","REF_FRAME":"TEME","RA_OF_ASC_NODE":"290.9721","REV_AT_EPOCH":"2259","CENTER_NAME":"EARTH","EPOCH":"2021-09-24T14:00:01.000224","PERIOD":"95.593","TLE_LINE1":"1 48461U 21040AK  21267.58334491  .00018331  00000-0  12466-2 0  9992","BSTAR":"0.00124660000000","GP_ID":"185403881","SITE":"AFETR","TIME_SYSTEM":"UTC","RCS_SIZE":"LARGE","OBJECT_ID":"2021-040AK","INCLINATION":"53.0531","MEAN_MOTION_DDOT":"0.0000000000000","TLE_LINE2":"2 48461  53.0531 290.9721 0000743  48.7736 348.3078 15.06392275 22592","ECCENTRICITY":"0.00007430","SEMIMAJOR_AXIS":"6925.372","PERIAPSIS":"546.723"},{"FILE":"3126621","COUNTRY_CODE":"US","MEAN_ANOMALY":"114.7765","NORAD_CAT_ID":"48462","EPHEMERIS_TYPE":"0","APOAPSIS":"547.423","ARG_OF_PERICENTER":"67.6720","OBJECT_TYPE":"PAYLOAD","CLASSIFICATION_TYPE":"U","RA_OF_ASC_NODE":"296.3847","REF_FRAME":"TEME","LAUNCH_DATE":"2021-05-09","MEAN_MOTION_DOT":"0.00040628","OBJECT_NAME":"STARLINK-2683","MEAN_ELEMENT_THEORY":"SGP4","ELEMENT_SET_NO":"999","DECAY_DATE":null,"MEAN_MOTION":"15.06379964","PERIOD":"95.593","TLE_LINE1":"1 48462U 21040AL  21267.50001157  .00040628  00000-0  27322-2 0  9996","EPOCH":"2021-09-24T12:00:00.999648","CENTER_NAME":"EARTH","REV_AT_EPOCH":"2184","SEMIMAJOR_AXIS":"6925.410","PERIAPSIS":"547.127","ECCENTRICITY":"0.00002140","TLE_LINE2":"2 48462  53.0457 296.3847 0000214  67.6720 114.7765 15.06379964 21840","OBJECT_ID":"2021-040AL","MEAN_MOTION_DDOT":"0.0000000000000","INCLINATION":"53.0457","TIME_SYSTEM":"UTC","SITE":"AFETR","RCS_SIZE":"LARGE","BSTAR":"0.00273220000000","GP_ID":"185403874"},{"FILE":"3126002","COUNTRY_CODE":"US","MEAN_ANOMALY":"28.0328","NORAD_CAT_ID":"48463","EPHEMERIS_TYPE":"0","APOAPSIS":"547.760","OBJECT_TYPE":"PAYLOAD","CLASSIFICATION_TYPE":"U","ARG_OF_PERICENTER":"66.6311","REF_FRAME":"TEME","RA_OF_ASC_NODE":"295.9779","MEAN_MOTION_DOT":"-0.00006700","LAUNCH_DATE":"2021-05-09","OBJECT_NAME":"STARLINK-2689","MEAN_MOTION":"15.06413366","MEAN_ELEMENT_THEORY":"SGP4","ELEMENT_SET_NO":"999","DECAY_DATE":null,"PERIOD":"95.591","TLE_LINE1":"1 48463U 21040AM  21267.58334491 -.00006700  00000-0 -43118-3 0  9992","CENTER_NAME":"EARTH","EPOCH":"2021-09-24T14:00:01.000224","REV_AT_EPOCH":"361","ECCENTRICITY":"0.00008480","SEMIMAJOR_AXIS":"6925.308","PERIAPSIS":"546.585","TLE_LINE2":"2 48463  53.0546 295.9779 0000848  66.6311  28.0328 15.06413366  3619","OBJECT_ID":"2021-040AM","MEAN_MOTION_DDOT":"0.0000000000000","INCLINATION":"53.0546","BSTAR":"-0.00043118000000","GP_ID":"185388952","TIME_SYSTEM":"UTC","SITE":"AFETR","RCS_SIZE":"LARGE"},{"CENTER_NAME":"EARTH","EPOCH":"2021-09-24T14:00:01.000224","PERIOD":"95.593","TLE_LINE1":"1 48464U 21040AN  21267.58334491  .00029897  00000-0  20183-2 0  9999","REV_AT_EPOCH":"2253","TLE_LINE2":"2 48464  53.0538 295.9779 0000100  73.4136 136.0392 15.06384894 22539","ECCENTRICITY":"0.00001000","SEMIMAJOR_AXIS":"6925.395","PERIAPSIS":"547.191","BSTAR":"0.00201830000000","GP_ID":"185403877","SITE":"AFETR","RCS_SIZE":"LARGE","TIME_SYSTEM":"UTC","OBJECT_ID":"2021-040AN","MEAN_MOTION_DDOT":"0.0000000000000","INCLINATION":"53.0538","EPHEMERIS_TYPE":"0","NORAD_CAT_ID":"48464","FILE":"3126621","COUNTRY_CODE":"US","MEAN_ANOMALY":"136.0392","OBJECT_TYPE":"PAYLOAD","CLASSIFICATION_TYPE":"U","ARG_OF_PERICENTER":"73.4136","APOAPSIS":"547.329","MEAN_MOTION_DOT":"0.00029897","LAUNCH_DATE":"2021-05-09","REF_FRAME":"TEME","RA_OF_ASC_NODE":"295.9779","MEAN_MOTION":"15.06384894","MEAN_ELEMENT_THEORY":"SGP4","ELEMENT_SET_NO":"999","DECAY_DATE":null,"OBJECT_NAME":"STARLINK-2686"},{"APOAPSIS":"547.675","CLASSIFICATION_TYPE":"U","OBJECT_TYPE":"PAYLOAD","ARG_OF_PERICENTER":"80.7974","FILE":"3126002","COUNTRY_CODE":"US","MEAN_ANOMALY":"68.7897","NORAD_CAT_ID":"48465","EPHEMERIS_TYPE":"0","OBJECT_NAME":"STARLINK-2681","MEAN_MOTION":"15.06382657","MEAN_ELEMENT_THEORY":"SGP4","DECAY_DATE":null,"ELEMENT_SET_NO":"999","REF_FRAME":"TEME","RA_OF_ASC_NODE":"295.9687","MEAN_MOTION_DOT":"0.00031841","LAUNCH_DATE":"2021-05-09","REV_AT_EPOCH":"360","PERIOD":"95.593","TLE_LINE1":"1 48465U 21040AP  21267.58334491  .00031841  00000-0  21479-2 0  9991","CENTER_NAME":"EARTH","EPOCH":"2021-09-24T14:00:01.000224","OBJECT_ID":"2021-040AP","MEAN_MOTION_DDOT":"0.0000000000000","INCLINATION":"53.0528","BSTAR":"0.00214790000000","GP_ID":"185388523","SITE":"AFETR","RCS_SIZE":"LARGE","TIME_SYSTEM":"UTC","ECCENTRICITY":"0.00005890","PERIAPSIS":"546.859","SEMIMAJOR_AXIS":"6925.402","TLE_LINE2":"2 48465  53.0528 295.9687 0000589  80.7974  68.7897 15.06382657  3602"},{"RA_OF_ASC_NODE":"295.9435","REF_FRAME":"TEME","LAUNCH_DATE":"2021-05-09","MEAN_MOTION_DOT":"0.00028495","OBJECT_NAME":"STARLINK-2687","MEAN_ELEMENT_THEORY":"SGP4","ELEMENT_SET_NO":"999","DECAY_DATE":null,"MEAN_MOTION":"15.06387336","FILE":"3126626","MEAN_ANOMALY":"167.3985","COUNTRY_CODE":"US","EPHEMERIS_TYPE":"0","NORAD_CAT_ID":"48466","APOAPSIS":"547.420","ARG_OF_PERICENTER":"62.1425","OBJECT_TYPE":"PAYLOAD","CLASSIFICATION_TYPE":"U","PERIAPSIS":"547.085","SEMIMAJOR_AXIS":"6925.387","ECCENTRICITY":"0.00002420","TLE_LINE2":"2 48466  53.0632 295.9435 0000242  62.1425 167.3985 15.06387336 22537","OBJECT_ID":"2021-040AQ","MEAN_MOTION_DDOT":"0.0000000000000","INCLINATION":"53.0632","SITE":"AFETR","TIME_SYSTEM":"UTC","RCS_SIZE":"LARGE","BSTAR":"0.00192480000000","GP_ID":"185404463","PERIOD":"95.593","TLE_LINE1":"1 48466U 21040AQ  21267.58334491  .00028495  00000-0  19248-2 0  9994","CENTER_NAME":"EARTH","EPOCH":"2021-09-24T14:00:01.000224","REV_AT_EPOCH":"2253"},{"MEAN_MOTION_DOT":"0.00030228","LAUNCH_DATE":"2021-05-09","REF_FRAME":"TEME","RA_OF_ASC_NODE":"295.9766","MEAN_MOTION":"15.06378582","DECAY_DATE":null,"ELEMENT_SET_NO":"999","MEAN_ELEMENT_THEORY":"SGP4","OBJECT_NAME":"STARLINK-2659","NORAD_CAT_ID":"48467","EPHEMERIS_TYPE":"0","COUNTRY_CODE":"US","FILE":"3126002","MEAN_ANOMALY":"19.0184","OBJECT_TYPE":"PAYLOAD","CLASSIFICATION_TYPE":"U","ARG_OF_PERICENTER":"70.5679","APOAPSIS":"547.789","TLE_LINE2":"2 48467  53.0544 295.9766 0000736  70.5679  19.0184 15.06378582  3603","ECCENTRICITY":"0.00007360","SEMIMAJOR_AXIS":"6925.414","PERIAPSIS":"546.769","GP_ID":"185388630","BSTAR":"0.00204070000000","SITE":"AFETR","RCS_SIZE":"LARGE","TIME_SYSTEM":"UTC","INCLINATION":"53.0544","MEAN_MOTION_DDOT":"0.0000000000000","OBJECT_ID":"2021-040AR","EPOCH":"2021-09-24T14:00:01.000224","CENTER_NAME":"EARTH","TLE_LINE1":"1 48467U 21040AR  21267.58334491  .00030228  00000-0  20407-2 0  9991","PERIOD":"95.593","REV_AT_EPOCH":"360"},{"MEAN_ANOMALY":"38.5621","FILE":"3126627","COUNTRY_CODE":"US","EPHEMERIS_TYPE":"0","NORAD_CAT_ID":"48468","APOAPSIS":"547.710","ARG_OF_PERICENTER":"58.8255","OBJECT_TYPE":"PAYLOAD","CLASSIFICATION_TYPE":"U","RA_OF_ASC_NODE":"296.3464","REF_FRAME":"TEME","LAUNCH_DATE":"2021-05-09","MEAN_MOTION_DOT":"0.00041951","OBJECT_NAME":"STARLINK-2685","ELEMENT_SET_NO":"999","DECAY_DATE":null,"MEAN_ELEMENT_THEORY":"SGP4","MEAN_MOTION":"15.06373670","TLE_LINE1":"1 48468U 21040AS  21267.50001157  .00041951  00000-0  28205-2 0  9993","PERIOD":"95.594","EPOCH":"2021-09-24T12:00:00.999648","CENTER_NAME":"EARTH","REV_AT_EPOCH":"2252","SEMIMAJOR_AXIS":"6925.429","PERIAPSIS":"546.878","ECCENTRICITY":"0.00006010","TLE_LINE2":"2 48468  53.0533 296.3464 0000601  58.8255  38.5621 15.06373670 22529","INCLINATION":"53.0533","MEAN_MOTION_DDOT":"0.0000000000000","OBJECT_ID":"2021-040AS","SITE":"AFETR","TIME_SYSTEM":"UTC","RCS_SIZE":"LARGE","GP_ID":"185404483","BSTAR":"0.00282050000000"},{"SITE":"AFETR","TIME_SYSTEM":"UTC","RCS_SIZE":"LARGE","BSTAR":"0.00210460000000","GP_ID":"185403983","OBJECT_ID":"2021-040AT","INCLINATION":"53.0552","MEAN_MOTION_DDOT":"0.0000000000000","TLE_LINE2":"2 48469  53.0552 295.9816 0000606  48.3958  61.1539 15.06388824 22534","PERIAPSIS":"546.828","SEMIMAJOR_AXIS":"6925.383","ECCENTRICITY":"0.00006060","REV_AT_EPOCH":"2253","EPOCH":"2021-09-24T14:00:01.000224","CENTER_NAME":"EARTH","PERIOD":"95.593","TLE_LINE1":"1 48469U 21040AT  21267.58334491  .00031196  00000-0  21046-2 0  9998","MEAN_ELEMENT_THEORY":"SGP4","ELEMENT_SET_NO":"999","DECAY_DATE":null,"MEAN_MOTION":"15.06388824","OBJECT_NAME":"STARLINK-2661","LAUNCH_DATE":"2021-05-09","MEAN_MOTION_DOT":"0.00031196","RA_OF_ASC_NODE":"295.9816","REF_FRAME":"TEME","ARG_OF_PERICENTER":"48.3958","CLASSIFICATION_TYPE":"U","OBJECT_TYPE":"PAYLOAD","APOAPSIS":"547.667","EPHEMERIS_TYPE":"0","NORAD_CAT_ID":"48469","COUNTRY_CODE":"US","FILE":"3126627","MEAN_ANOMALY":"61.1539"}];
